STARLINK-5681           
1 55469U 23015W   25045.04812670  .00002061  00000+0  16763-3 0  9998
2 55469  43.0034 277.6382 0001325 268.3832  91.6859 15.02532839112294
STARLINK-5708           
1 55470U 23015X   25045.63865828  .00000296  00000+0  36960-4 0  9998
2 55470  43.0005 274.3285 0000662 277.4428  82.6340 15.02538791112383
STARLINK-5711           
1 55471U 23015Y   25045.63643754  .00001269  00000+0  10899-3 0  9994
2 55471  43.0030 274.3132 0001300 269.3278  90.7415 15.02534423112387
STARLINK-5705           
1 55472U 23015Z   25045.63570451  .00000983  00000+0  87796-4 0  9991
2 55472  43.0022 262.1613 0001196 273.6973  86.3732 15.02543212112526
STARLINK-5687           
1 55473U 23015AA  25045.58041411  .00023987  00000+0  76655-3 0  9995
2 55473  42.9937 230.6463 0027814 247.9698 111.8200 15.31627555112895
STARLINK-5689           
1 55474U 23015AB  25045.07450930 -.00000213  00000+0 -71486-6 0  9999
2 55474  43.0026 290.8285 0001275 261.9188  98.1509 15.02540521112142
STARLINK-5650           
1 55475U 23015AC  25045.62866582  .00000835  00000+0  76865-4 0  9997
2 55475  43.0029 274.2525 0000984 264.3743  95.6987 15.02543327112384
STARLINK-5685           
1 55477U 23015AE  25045.29776423  .00000713  00000+0  67858-4 0  9993
2 55477  43.0029 263.9215 0001298 277.5439  82.5256 15.02537076112472
STARLINK-5691           
1 55478U 23015AF  25045.03074733  .00000929  00000+0  83850-4 0  9990
2 55478  43.0027 265.3589 0001788 262.6672  97.3967 15.02546929112435
STARLINK-5688           
1 55479U 23015AG  25045.63903299  .00000388  00000+0  43824-4 0  9991
2 55479  43.0025 262.1825 0001344 268.4700  91.5988 15.02536049112527
STARLINK-5690           
1 55480U 23015AH  25045.39355819  .00000930  00000+0  83858-4 0  9999
2 55480  43.0017 288.8391 0000885 274.6249  85.4492 15.02549380112017
STARLINK-5694           
1 55481U 23015AJ  25045.40245599  .00000515  00000+0  53208-4 0  9990
2 55481  43.0040 288.9881 0001237 275.6517  84.4184 15.02536979112196
STARLINK-5692           
1 55483U 23015AL  25045.39246096  .00001129  00000+0  98574-4 0  9990
2 55483  43.0011 288.9127 0001141 266.1770  93.8942 15.02547702112191
STARLINK-5696           
1 55484U 23015AM  25045.38359230  .00001109  00000+0  97126-4 0  9995
2 55484  42.9993 288.8473 0000919 275.4165  84.6572 15.02533823112191
STARLINK-5695           
1 55485U 23015AN  25045.39912456  .00000620  00000+0  60961-4 0  9996
2 55485  43.0030 288.9624 0001181 272.8338  87.2369 15.02544010112193
STARLINK-5704           
1 55486U 23015AP  25045.38580870  .00001199  00000+0  10378-3 0  9995
2 55486  43.0054 288.8190 0001918 267.4120  92.6503 15.02543321112198
STARLINK-5701           
1 55487U 23015AQ  25045.06784546  .00000821  00000+0  75842-4 0  9996
2 55487  43.0054 290.7735 0001217 267.4569  92.6134 15.02536322112143
STARLINK-5706           
1 55488U 23015AR  25045.37581893  .00000160  00000+0  26907-4 0  9995
2 55488  43.0026 288.7837 0001197 269.7376  90.3329 15.02538603112191
STARLINK-5371           
1 55489U 23015AS  25045.38913254  .00000941  00000+0  84721-4 0  9992
2 55489  43.0033 288.8889 0001147 267.0583  93.0128 15.02543792112196
STARLINK-5373           
1 55490U 23015AT  25045.38691831  .00000654  00000+0  63451-4 0  9996
2 55490  43.0024 288.8610 0001045 272.7834  87.2888 15.02534509112193
STARLINK-5364           
1 55491U 23015AU  25045.64004025  .00000634  00000+0  62043-4 0  9993
2 55491  43.0052 261.3201 0001731 270.3243  89.7401 15.02519675112530
STARLINK-5013           
1 55492U 23015AV  25045.37915863  .00003523  00000+0  27573-3 0  9993
2 55492  43.0040 288.8087 0001319 261.3170  98.7523 15.02536704112194
STARLINK-5362           
1 55493U 23015AW  25045.38247531 -.00003033  00000+0 -20948-3 0  9992
2 55493  43.0010 288.8309 0001072 277.7926  82.2794 15.02549716112190
STARLINK-5344           
1 55494U 23015AX  25045.36694093  .00000512  00000+0  53008-4 0  9991
2 55494  43.0025 288.7158 0001244 269.7171  90.3529 15.02534587112198
STARLINK-5100           
1 55495U 23015AY  25045.62571646 -.00000044  00000+0  11814-4 0  9999
2 55495  43.0023 262.0828 0001274 263.3011  96.7686 15.02536164112526
STARLINK-5363           
1 55497U 23015BA  25045.36583006 -.00000171  00000+0  23775-5 0  9996
2 55497  43.0033 288.7087 0001118 267.3937  92.6777 15.02539555112195
STARLINK-5365           
1 55498U 23015BB  25045.35695583 -.00000680  00000+0 -35279-4 0  9997
2 55498  43.0032 288.6401 0001317 270.0619  90.0072 15.02530092112190
STARLINK-5366           
1 55499U 23015BC  25045.35028613  .00000528  00000+0  54131-4 0  9999
2 55499  43.0041 288.5888 0001253 269.4004  90.6695 15.02538797112948
STARLINK-5141           
1 55500U 23015BD  25045.36250968 -.00008266  00000+0 -59695-3 0  9991
2 55500  43.0043 288.6823 0001972 257.3326 102.7296 15.02570344112197
STARLINK-5367           
1 55501U 23015BE  25045.02011661  .00001396  00000+0  11838-3 0  9992
2 55501  43.0044 290.4008 0001037 277.3468  82.7257 15.02546633112149
STARLINK-5749           
1 55569U 23020A   25045.44957337  .00002448  00000+0  19629-3 0  9992
2 55569  43.0039 314.5947 0001172 266.2616  93.8092 15.02522965111588
STARLINK-5737           
1 55570U 23020B   25045.45178724  .00000643  00000+0  62637-4 0  9993
2 55570  43.0037 314.6148 0001221 273.8893  86.1810 15.02536860110512
STARLINK-5739           
1 55571U 23020C   25045.44623614  .00000901  00000+0  81772-4 0  9994
2 55571  43.0076 314.5654 0001145 275.9651  84.1061 15.02535070110515
STARLINK-5732           
1 55572U 23020D   25045.44180309  .00003744  00000+0  29207-3 0  9996
2 55572  43.0027 314.5376 0001393 268.0203  92.0480 15.02536608110515
STARLINK-5738           
1 55573U 23020E   25045.44291129  .00012141  00000+0  91149-3 0  9995
2 55573  43.0052 314.5513 0001739 250.0085 110.0570 15.02569638110510
STARLINK-5747           
1 55574U 23020F   25045.43291827 -.00000394  00000+0 -14063-4 0  9990
2 55574  43.0044 314.4735 0001361 259.4074 100.6615 15.02540365110510
STARLINK-5745           
1 55575U 23020G   25045.43846291  .00000890  00000+0  80922-4 0  9998
2 55575  43.0054 314.5110 0001351 275.2564  84.8124 15.02539183110513
STARLINK-5751           
1 55576U 23020H   25045.07996880 -.00000205  00000+0 -84534-7 0  9997
2 55576  43.0071 290.1325 0002320 255.2947 104.7638 15.02529996110760
STARLINK-5752           
1 55577U 23020J   25045.43512593  .00000402  00000+0  44824-4 0  9995
2 55577  43.0045 314.4243 0001263 257.4334 102.6367 15.02545008110511
STARLINK-5713           
1 55578U 23020K   25045.61305046  .00126057  00000+0  67812-2 0  9994
2 55578  43.0015 312.3575 0000440 359.2208   0.8638 15.13645684110558
STARLINK-5754           
1 55579U 23020L   25045.08276405  .00000994  00000+0  88623-4 0  9998
2 55579  43.0033 316.1435 0001318 256.9433 103.1262 15.02541679110461
STARLINK-5757           
1 55580U 23020M   25045.01126207 -.00000192  00000+0  86592-6 0  9993
2 55580  43.0044 290.4794 0001241 251.2325 108.8383 15.02539364110756
STARLINK-5753           
1 55581U 23020N   25045.16367413  .00002017  00000+0  16434-3 0  9998
2 55581  43.0035 315.8898 0001197 260.7936  99.2770 15.02537847110473
STARLINK-5741           
1 55582U 23020P   25045.41402913 -.00000410  00000+0 -15732-4 0  9990
2 55582  43.0026 301.3756 0001469 261.1371  98.9304 15.01709425110669
STARLINK-5742           
1 55583U 23020Q   25045.42292078  .00000260  00000+0  34294-4 0  9996
2 55583  43.0036 314.3981 0001179 268.2337  91.8370 15.02541434110517
STARLINK-5736           
1 55584U 23020R   25045.08829947  .00002287  00000+0  18425-3 0  9998
2 55584  43.0042 316.1847 0001241 260.1996  99.8706 15.02554147110468
STARLINK-5769           
1 55585U 23020S   25045.05318578 -.00000161  00000+0  31168-5 0  9990
2 55585  43.0035 303.8253 0001082 268.1432  91.9287 15.02538060110600
STARLINK-5767           
1 55586U 23020T   25045.61237146  .00013520  00000+0  10137-2 0  9996
2 55586  43.0028 313.2423 0001521 263.9437  96.1232 15.02547175110540
STARLINK-5727           
1 55587U 23020U   25045.08608769  .00001313  00000+0  11224-3 0  9997
2 55587  43.0051 316.1071 0001345 271.0304  89.0384 15.02537946110460
STARLINK-5728           
1 55588U 23020V   25045.47275600  .00000216  00000+0  31055-4 0  9991
2 55588  43.0030 313.9155 0001309 262.9502  97.1191 15.02543680110520
STARLINK-5697           
1 55589U 23020W   25045.01295903  .00001079  00000+0  94936-4 0  9995
2 55589  43.0046 316.4765 0001102 281.7767  78.2952 15.02537557110459
STARLINK-5762           
1 55590U 23020X   25045.46610640 -.00001841  00000+0 -12123-3 0  9991
2 55590  43.0061 313.8642 0001442 268.0222  92.0455 15.02536546110521
STARLINK-5760           
1 55591U 23020Y   25045.14370076 -.00000004  00000+0  14818-4 0  9996
2 55591  43.0036 315.7414 0001705 279.0663  80.9986 15.02531360110473
STARLINK-5759           
1 55592U 23020Z   25045.46166055 -.00000054  00000+0  11037-4 0  9997
2 55592  43.0037 313.8303 0001083 271.8526  88.2192 15.02531371110526
STARLINK-5703           
1 55593U 23020AA  25045.13703881  .00001168  00000+0  10152-3 0  9998
2 55593  43.0033 315.6938 0001182 271.8270  88.2437 15.02533859110472
STARLINK-5750           
1 55594U 23020AB  25045.45833038  .00000221  00000+0  31412-4 0  9994
2 55594  43.0053 313.8054 0001528 265.4232  94.6436 15.02534544110523
STARLINK-5740           
1 55595U 23020AC  25045.46498587  .00000713  00000+0  67817-4 0  9996
2 55595  43.0054 313.8499 0001134 267.0079  93.0633 15.02537569110520
STARLINK-5729           
1 55596U 23020AD  25045.45612472 -.00001257  00000+0 -78063-4 0  9998
2 55596  43.0025 313.7900 0000540 280.9506  79.1276 15.02521243110524
STARLINK-5743           
1 55597U 23020AE  25045.11632927  .00000053  00000+0  18985-4 0  9997
2 55597  43.0043 303.4379 0001334 260.9039  99.1653 15.02541845110613
